STARLINK-2176
1 27758C 21017AN  21325.13924085  .00006121  00000-0  40998-3 0  3253
2 27758  53.0562  57.6139 0007495  40.2795 279.0200 15.06380349    17
